{
  "type": "FeatureCollection",
  "features": [
    {
      "type": "Feature",
      "properties": {
        "norad_id": 29780,
        "name": "FENGYUN 1C DEB",
        "group": "fengyun-1c-debris",
        "lat": -36.84668580347385,
        "lon": 79.02469122105748,
        "alt_km": 825.4020830916243,
        "timestamp": "2025-12-11T05:00:26.579938+00:00",
        "meta_object_name": "FENGYUN 1C DEB",
        "meta_object_id": "1999-025BW",
        "meta_epoch": "2025-12-10T17:51:08.524224",
        "meta_mean_motion": 14.21017205,
        "meta_eccentricity": 0.00403828,
        "meta_inclination": 99.2772,
        "meta_ra_of_asc_node": 265.5725,
        "meta_arg_of_pericenter": 133.8958,
        "meta_mean_anomaly": 226.5564,
        "meta_ephemeris_type": 0,
        "meta_classification_type": "U",
        "meta_norad_cat_id": 29780,
        "meta_element_set_no": 999,
        "meta_rev_at_epoch": 97050,
        "meta_bstar": 0.0025073168,
        "meta_mean_motion_dot": 5.438e-05,
        "meta_mean_motion_ddot": 0,
        "tle_line1": "1 29780U 99025BW  25344.74384866  .00005438  00000+0  25073-2 0  9993",
        "tle_line2": "2 29780  99.2772 265.5725 0040382 133.8958 226.5564 14.21017205970504"
      },
      "geometry": {
        "type": "Point",
        "coordinates": [
          79.02469122105748,
          -36.84668580347385
        ]
      }
    },
    {
      "type": "Feature",
      "properties": {
        "norad_id": 29781,
        "name": "FENGYUN 1C DEB",
        "group": "fengyun-1c-debris",
        "lat": -73.13309171613638,
        "lon": 128.64754780345123,
        "alt_km": 871.9847271118297,
        "timestamp": "2025-12-11T05:00:26.579948+00:00",
        "meta_object_name": "FENGYUN 1C DEB",
        "meta_object_id": "1999-025BX",
        "meta_epoch": "2025-12-10T18:21:53.735328",
        "meta_mean_motion": 14.05219893,
        "meta_eccentricity": 0.00717552,
        "meta_inclination": 98.809,
        "meta_ra_of_asc_node": 338.977,
        "meta_arg_of_pericenter": 178.6415,
        "meta_mean_anomaly": 354.078,
        "meta_ephemeris_type": 0,
        "meta_classification_type": "U",
        "meta_norad_cat_id": 29781,
        "meta_element_set_no": 999,
        "meta_rev_at_epoch": 96615,
        "meta_bstar": 0.00079534923,
        "meta_mean_motion_dot": 1.273e-05,
        "meta_mean_motion_ddot": 0,
        "tle_line1": "1 29781U 99025BX  25344.76520527  .00001273  00000+0  79535-3 0  9998",
        "tle_line2": "2 29781  98.8090 338.9770 0071755 178.6415 354.0780 14.05219893966153"
      },
      "geometry": {
        "type": "Point",
        "coordinates": [
          128.64754780345123,
          -73.13309171613638
        ]
      }
    },
    {
      "type": "Feature",
      "properties": {
        "norad_id": 29782,
        "name": "FENGYUN 1C DEB",
        "group": "fengyun-1c-debris",
        "lat": -74.24761950043035,
        "lon": -175.84221135961818,
        "alt_km": 835.0941873460388,
        "timestamp": "2025-12-11T05:00:26.579958+00:00",
        "meta_object_name": "FENGYUN 1C DEB",
        "meta_object_id": "1999-025BY",
        "meta_epoch": "2025-12-10T21:50:58.504704",
        "meta_mean_motion": 14.11646384,
        "meta_eccentricity": 0.00554031,
        "meta_inclination": 99.0999,
        "meta_ra_of_asc_node": 38.48,
        "meta_arg_of_pericenter": 207.9579,
        "meta_mean_anomaly": 333.8141,
        "meta_ephemeris_type": 0,
        "meta_classification_type": "U",
        "meta_norad_cat_id": 29782,
        "meta_element_set_no": 999,
        "meta_rev_at_epoch": 96645,
        "meta_bstar": 0.0019007379,
        "meta_mean_motion_dot": 3.462e-05,
        "meta_mean_motion_ddot": 0,
        "tle_line1": "1 29782U 99025BY  25344.91039936  .00003462  00000+0  19007-2 0  9994",
        "tle_line2": "2 29782  99.0999  38.4800 0055403 207.9579 333.8141 14.11646384966455"
      },
      "geometry": {
        "type": "Point",
        "coordinates": [
          -175.84221135961818,
          -74.24761950043035
        ]
      }
    },
    {
      "type": "Feature",
      "properties": {
        "norad_id": 29784,
        "name": "FENGYUN 1C DEB",
        "group": "fengyun-1c-debris",
        "lat": -53.863447422398906,
        "lon": -83.58147560542042,
        "alt_km": 754.1700189748108,
        "timestamp": "2025-12-11T05:00:26.579969+00:00",
        "meta_object_name": "FENGYUN 1C DEB",
        "meta_object_id": "1999-025CA",
        "meta_epoch": "2025-12-10T17:38:54.811968",
        "meta_mean_motion": 14.30574992,
        "meta_eccentricity": 0.00595123,
        "meta_inclination": 98.9449,
        "meta_ra_of_asc_node": 263.4755,
        "meta_arg_of_pericenter": 303.3346,
        "meta_mean_anomaly": 85.7863,
        "meta_ephemeris_type": 0,
        "meta_classification_type": "U",
        "meta_norad_cat_id": 29784,
        "meta_element_set_no": 999,
        "meta_rev_at_epoch": 98331,
        "meta_bstar": 0.00093542725,
        "meta_mean_motion_dot": 2.441e-05,
        "meta_mean_motion_ddot": 0,
        "tle_line1": "1 29784U 99025CA  25344.73535662  .00002441  00000+0  93543-3 0  9997",
        "tle_line2": "2 29784  98.9449 263.4755 0059512 303.3346  85.7863 14.30574992983316"
      },
      "geometry": {
        "type": "Point",
        "coordinates": [
          -83.58147560542042,
          -53.863447422398906
        ]
      }
    },
    {
      "type": "Feature",
      "properties": {
        "norad_id": 29786,
        "name": "FENGYUN 1C DEB",
        "group": "fengyun-1c-debris",
        "lat": 3.465554229329267,
        "lon": 1.9392190605179573,
        "alt_km": 833.5891822977856,
        "timestamp": "2025-12-11T05:00:26.579979+00:00",
        "meta_object_name": "FENGYUN 1C DEB",
        "meta_object_id": "1999-025CC",
        "meta_epoch": "2025-12-10T19:36:06.379200",
        "meta_mean_motion": 14.09082462,
        "meta_eccentricity": 0.0077052,
        "meta_inclination": 98.736,
        "meta_ra_of_asc_node": 2.0928,
        "meta_arg_of_pericenter": 308.5557,
        "meta_mean_anomaly": 227.4513,
        "meta_ephemeris_type": 0,
        "meta_classification_type": "U",
        "meta_norad_cat_id": 29786,
        "meta_element_set_no": 999,
        "meta_rev_at_epoch": 97133,
        "meta_bstar": 0.00027762661,
        "meta_mean_motion_dot": 4.52e-06,
        "meta_mean_motion_ddot": 0,
        "tle_line1": "1 29786U 99025CC  25344.81674050  .00000452  00000+0  27763-3 0  9994",
        "tle_line2": "2 29786  98.7360   2.0928 0077052 308.5557 227.4513 14.09082462971335"
      },
      "geometry": {
        "type": "Point",
        "coordinates": [
          1.9392190605179573,
          3.465554229329267
        ]
      }
    },
    {
      "type": "Feature",
      "properties": {
        "norad_id": 29788,
        "name": "FENGYUN 1C DEB",
        "group": "fengyun-1c-debris",
        "lat": -24.128139684021598,
        "lon": -127.1429960146521,
        "alt_km": 780.409629501878,
        "timestamp": "2025-12-11T05:00:26.579990+00:00",
        "meta_object_name": "FENGYUN 1C DEB",
        "meta_object_id": "1999-025CE",
        "meta_epoch": "2025-12-10T16:58:31.958976",
        "meta_mean_motion": 14.25946831,
        "meta_eccentricity": 0.00430327,
        "meta_inclination": 98.7835,
        "meta_ra_of_asc_node": 56.3257,
        "meta_arg_of_pericenter": 194.7319,
        "meta_mean_anomaly": 317.4303,
        "meta_ephemeris_type": 0,
        "meta_classification_type": "U",
        "meta_norad_cat_id": 29788,
        "meta_element_set_no": 999,
        "meta_rev_at_epoch": 97326,
        "meta_bstar": 0.0025355812,
        "meta_mean_motion_dot": 6.063e-05,
        "meta_mean_motion_ddot": 0,
        "tle_line1": "1 29788U 99025CE  25344.70731434  .00006063  00000+0  25356-2 0  9993",
        "tle_line2": "2 29788  98.7835  56.3257 0043032 194.7319 317.4303 14.25946831973261"
      },
      "geometry": {
        "type": "Point",
        "coordinates": [
          -127.1429960146521,
          -24.128139684021598
        ]
      }
    },
    {
      "type": "Feature",
      "properties": {
        "norad_id": 29789,
        "name": "FENGYUN 1C DEB",
        "group": "fengyun-1c-debris",
        "lat": 27.500636504885566,
        "lon": 163.09303491533765,
        "alt_km": 1107.9539633659742,
        "timestamp": "2025-12-11T05:00:26.580000+00:00",
        "meta_object_name": "FENGYUN 1C DEB",
        "meta_object_id": "1999-025CF",
        "meta_epoch": "2025-12-10T18:19:09.360192",
        "meta_mean_motion": 13.542331,
        "meta_eccentricity": 0.02983439,
        "meta_inclination": 99.4513,
        "meta_ra_of_asc_node": 167.6413,
        "meta_arg_of_pericenter": 283.7828,
        "meta_mean_anomaly": 90.9022,
        "meta_ephemeris_type": 0,
        "meta_classification_type": "U",
        "meta_norad_cat_id": 29789,
        "meta_element_set_no": 999,
        "meta_rev_at_epoch": 92961,
        "meta_bstar": 0.0019748933,
        "meta_mean_motion_dot": 1.739e-05,
        "meta_mean_motion_ddot": 0,
        "tle_line1": "1 29789U 99025CF  25344.76330278  .00001739  00000+0  19749-2 0  9995",
        "tle_line2": "2 29789  99.4513 167.6413 0298343 283.7828  90.9022 13.54233100929614"
      },
      "geometry": {
        "type": "Point",
        "coordinates": [
          163.09303491533765,
          27.500636504885566
        ]
      }
    }
  ]
}